BEIDOU G1               
1 36287U 10001A   16292.54454167 -.00000300  00000-0  10000-3 0  9992
2 36287   1.5273   5.0898 0005994 220.9292 137.5379  1.00272285 24782
BEIDOU G3               
1 36590U 10024A   16291.62528707 -.00000370  00000-0  00000-0 0  9997
2 36590   1.3687  25.3625 0005657 290.5363  46.1665  1.00265037 23382
BEIDOU IGSO 1           
1 36828U 10036A   16292.57747509 -.00000147  00000-0  10000-3 0  9998
2 36828  54.2116 195.8794 0048302 222.2522 293.6679  1.00250875 22830
BEIDOU G4               
1 37210U 10057A   16291.80337086 -.00000127  00000-0  00000-0 0  9991
2 37210   0.9660  52.7474 0009577 174.2481 248.9788  1.00272678 21901
BEIDOU IGSO 2           
1 37256U 10068A   16291.89836167 -.00000213  00000-0  10000-3 0  9996
2 37256  53.4305 314.0860 0050261 209.3261 304.7019  1.00254692 21415
BEIDOU IGSO 3           
1 37384U 11013A   16291.87853660 -.00000165  00000-0  10000-3 0  9990
2 37384  57.5243  75.4757 0025714 201.4575 187.0760  1.00276238 20292
BEIDOU IGSO 4           
1 37763U 11038A   16291.92716355 -.00000088  00000-0  10000-3 0  9997
2 37763  54.5182 198.2113 0041916 210.8549  45.1832  1.00289486 19256
BEIDOU IGSO 5           
1 37948U 11073A   16291.95217769 -.00000153  00000-0  10000-3 0  9992
2 37948  53.5207 313.5472 0044980 207.7380 303.2624  1.00269744 18015
BEIDOU G5               
1 38091U 12008A   16292.59216494  .00000037  00000-0  00000+0 0  9991
2 38091   1.8208  51.2074 0004188 194.6520  53.7005  1.00278402 17090
BEIDOU M3               
1 38250U 12018A   16291.64488424 -.00000029  00000-0  10000-3 0  9995
2 38250  56.0844  62.2795 0023463 213.4643  53.0246  1.86233164 30556
BEIDOU M4               
1 38251U 12018B   16291.76531289 -.00000030  00000-0  10000-3 0  9999
2 38251  56.0209  61.7212 0026145 207.5251 187.6391  1.86233991 30563
BEIDOU M6               
1 38775U 12050B   16291.70158354  .00000032  00000-0  00000-0 0  9995
2 38775  54.8334 181.4739 0019667 228.8384 318.6608  1.86233184 27935
BEIDOU G6               
1 38953U 12059A   16292.00416779 -.00000191  00000-0  10000-3 0  9995
2 38953   1.1569  79.1791 0006565 150.6714 242.6697  1.00271415 14666
BEIDOU I1-S             
1 40549U 15019A   16291.80154634 -.00000166  00000-0  00000+0 0  9991
2 40549  54.6104 336.5425 0041553 182.9784 250.0768  1.00291646  5696
BEIDOU-3 M1             
1 40748U 15037A   16292.43857030 -.00000032  00000-0  00000+0 0  9994
2 40748  55.2896  61.8132 0005702 246.9264 146.0788  1.86237738  8409
BEIDOU-3 M2             
1 40749U 15037B   16291.75103699 -.00000032  00000-0  00000+0 0  9994
2 40749  55.2912  61.8217 0005955 262.5325 168.2113  1.86237199  8381
BEIDOU I2-S             
1 40938U 15053A   16292.00745405 -.00000138  00000-0  00000+0 0  9995
2 40938  54.5345 299.4105 0045183 175.2614   9.8014  1.00261101  3972
BEIDOU M3-S             
1 41315U 16006A   16291.74104135  .00000032  00000-0  00000+0 0  9995
2 41315  55.0180 181.6618 0002053 306.9046 133.0433  1.86235705  4877
BEIDOU IGSO 6           
1 41434U 16021A   16291.97157502 -.00000126  00000-0  10000-3 0  9995
2 41434  55.2217  75.0732 0029601 174.9360 222.3923  1.00281520  2107
BEIDOU G7               
1 41586U 16037A   16290.67503458 -.00000264  00000-0  00000+0 0  9999
2 41586   1.6462 309.4333 0004588 276.6533 187.0347  1.00276095  1402
